start=new Date('2021-10-31T00:00:00.000Z').valueOf();
sats=[{"OBJECT_ID":"2021-021AL","MEAN_MOTION_DDOT":"0.0000000000000","SEMIMAJOR_AXIS":"6925.347","LAUNCH_DATE":"2021-03-14","EPHEMERIS_TYPE":"0","OBJECT_TYPE":"PAYLOAD","ECCENTRICITY":"0.00016770","DECAY_DATE":null,"FILE":"3192905","ARG_OF_PERICENTER":"73.7061","TLE_LINE1":"1 47894U 21021AL  21303.03664754  .00000993  00000-0  85558-4 0  9998","RA_OF_ASC_NODE":"216.8237","TIME_SYSTEM":"UTC","RCS_SIZE":"LARGE","CENTER_NAME":"EARTH","NORAD_CAT_ID":"47894","MEAN_ELEMENT_THEORY":"SGP4","OBJECT_NAME":"STARLINK-2354","BSTAR":"0.00008555800000","CLASSIFICATION_TYPE":"U","PERIAPSIS":"546.050","MEAN_MOTION_DOT":"0.00000993","PERIOD":"95.592","ELEMENT_SET_NO":"999","EPOCH":"2021-10-30T00:52:46.347456","INCLINATION":"53.0566","APOAPSIS":"548.373","GP_ID":"188515434","COUNTRY_CODE":"US","MEAN_MOTION":"15.06400648","REV_AT_EPOCH":"3624","TLE_LINE2":"2 47894  53.0566 216.8237 0001677  73.7061 286.4112 15.06400648 36246","REF_FRAME":"TEME","SITE":"AFETR","MEAN_ANOMALY":"286.4112"},{"PERIOD":"95.591","ELEMENT_SET_NO":"999","PERIAPSIS":"545.993","MEAN_MOTION_DOT":"0.00014992","INCLINATION":"53.0549","EPOCH":"2021-10-30T05:55:19.771104","CLASSIFICATION_TYPE":"U","OBJECT_NAME":"STARLINK-2355","BSTAR":"0.00102260000000","SITE":"AFETR","REF_FRAME":"TEME","MEAN_ANOMALY":"276.7264","MEAN_MOTION":"15.06423023","REV_AT_EPOCH":"3630","TLE_LINE2":"2 47895  53.0549 215.8783 0001660  83.3914 276.7264 15.06423023 36308","APOAPSIS":"548.293","COUNTRY_CODE":"US","GP_ID":"188515686","DECAY_DATE":null,"ECCENTRICITY":"0.00016600","OBJECT_TYPE":"PAYLOAD","LAUNCH_DATE":"2021-03-14","SEMIMAJOR_AXIS":"6925.278","EPHEMERIS_TYPE":"0","OBJECT_ID":"2021-021AM","MEAN_MOTION_DDOT":"0.0000000000000","CENTER_NAME":"EARTH","RCS_SIZE":"LARGE","MEAN_ELEMENT_THEORY":"SGP4","NORAD_CAT_ID":"47895","FILE":"3192905","ARG_OF_PERICENTER":"83.3914","RA_OF_ASC_NODE":"215.8783","TIME_SYSTEM":"UTC","TLE_LINE1":"1 47895U 21021AM  21303.24675661  .00014992  00000-0  10226-2 0  9993"},{"DECAY_DATE":null,"OBJECT_TYPE":"PAYLOAD","ECCENTRICITY":"0.00025540","LAUNCH_DATE":"2021-03-14","SEMIMAJOR_AXIS":"6925.215","EPHEMERIS_TYPE":"0","OBJECT_ID":"2021-021AN","MEAN_MOTION_DDOT":"0.0000000000000","RCS_SIZE":"LARGE","CENTER_NAME":"EARTH","NORAD_CAT_ID":"47896","MEAN_ELEMENT_THEORY":"SGP4","FILE":"3193065","ARG_OF_PERICENTER":"69.4137","TLE_LINE1":"1 47896U 21021AN  21303.50520014 -.00002902  00000-0 -17574-3 0  9998","TIME_SYSTEM":"UTC","RA_OF_ASC_NODE":"229.6688","PERIAPSIS":"545.311","MEAN_MOTION_DOT":"-0.00002902","ELEMENT_SET_NO":"999","PERIOD":"95.589","INCLINATION":"53.0547","EPOCH":"2021-10-30T12:07:29.292096","CLASSIFICATION_TYPE":"U","OBJECT_NAME":"STARLINK-2356","BSTAR":"-0.00017574000000","REF_FRAME":"TEME","SITE":"AFETR","MEAN_ANOMALY":"290.7126","MEAN_MOTION":"15.06443578","TLE_LINE2":"2 47896  53.0547 229.6688 0002554  69.4137 290.7126 15.06443578 35678","REV_AT_EPOCH":"3567","APOAPSIS":"548.849","GP_ID":"188520553","COUNTRY_CODE":"US"},{"EPHEMERIS_TYPE":"0","SEMIMAJOR_AXIS":"6925.373","LAUNCH_DATE":"2021-03-14","MEAN_MOTION_DDOT":"0.0000000000000","OBJECT_ID":"2021-021AP","DECAY_DATE":null,"ECCENTRICITY":"0.00016160","OBJECT_TYPE":"PAYLOAD","TIME_SYSTEM":"UTC","RA_OF_ASC_NODE":"216.2106","TLE_LINE1":"1 47897U 21021AP  21303.17945151  .00000056  00000-0  22631-4 0  9992","ARG_OF_PERICENTER":"72.4836","FILE":"3192905","NORAD_CAT_ID":"47897","MEAN_ELEMENT_THEORY":"SGP4","CENTER_NAME":"EARTH","RCS_SIZE":"MEDIUM","CLASSIFICATION_TYPE":"U","BSTAR":"0.00002263100000","OBJECT_NAME":"STARLINK-2357","INCLINATION":"53.0563","EPOCH":"2021-10-30T04:18:24.610464","ELEMENT_SET_NO":"999","PERIOD":"95.593","PERIAPSIS":"546.119","MEAN_MOTION_DOT":"0.00000056","COUNTRY_CODE":"US","GP_ID":"188514685","APOAPSIS":"548.357","MEAN_ANOMALY":"287.6330","SITE":"AFETR","REF_FRAME":"TEME","REV_AT_EPOCH":"3632","TLE_LINE2":"2 47897  53.0563 216.2106 0001616  72.4836 287.6330 15.06392038 36321","MEAN_MOTION":"15.06392038"},{"DECAY_DATE":null,"ECCENTRICITY":"0.00015730","OBJECT_TYPE":"PAYLOAD","SEMIMAJOR_AXIS":"6925.333","LAUNCH_DATE":"2021-03-14","EPHEMERIS_TYPE":"0","OBJECT_ID":"2021-021AQ","MEAN_MOTION_DDOT":"0.0000000000000","CENTER_NAME":"EARTH","RCS_SIZE":"LARGE","NORAD_CAT_ID":"47898","MEAN_ELEMENT_THEORY":"SGP4","FILE":"3192905","ARG_OF_PERICENTER":"69.2355","RA_OF_ASC_NODE":"216.2133","TIME_SYSTEM":"UTC","TLE_LINE1":"1 47898U 21021AQ  21303.17302547  .00003097  00000-0  22667-3 0  9995","ELEMENT_SET_NO":"999","PERIOD":"95.592","PERIAPSIS":"546.109","MEAN_MOTION_DOT":"0.00003097","INCLINATION":"53.0559","EPOCH":"2021-10-30T04:09:09.400608","CLASSIFICATION_TYPE":"U","OBJECT_NAME":"STARLINK-2358","BSTAR":"0.00022667000000","SITE":"AFETR","REF_FRAME":"TEME","MEAN_ANOMALY":"290.8803","MEAN_MOTION":"15.06404925","TLE_LINE2":"2 47898  53.0559 216.2133 0001573  69.2355 290.8803 15.06404925 36262","REV_AT_EPOCH":"3626","APOAPSIS":"548.288","COUNTRY_CODE":"US","GP_ID":"188514935"},{"COUNTRY_CODE":"US","GP_ID":"188516186","APOAPSIS":"548.287","MEAN_ANOMALY":"284.9586","SITE":"AFETR","REF_FRAME":"TEME","REV_AT_EPOCH":"3650","TLE_LINE2":"2 47899  53.0561 205.0323 0001571  75.1577 284.9586 15.06404885 36507","MEAN_MOTION":"15.06404885","CLASSIFICATION_TYPE":"U","BSTAR":"0.00016373000000","OBJECT_NAME":"STARLINK-2359","EPOCH":"2021-10-30T10:27:19.384128","INCLINATION":"53.0561","ELEMENT_SET_NO":"999","PERIOD":"95.592","PERIAPSIS":"546.111","MEAN_MOTION_DOT":"0.00002158","RA_OF_ASC_NODE":"205.0323","TIME_SYSTEM":"UTC","TLE_LINE1":"1 47899U 21021AR  21303.43564102  .00002158  00000-0  16373-3 0  9996","FILE":"3192905","ARG_OF_PERICENTER":"75.1577","MEAN_ELEMENT_THEORY":"SGP4","NORAD_CAT_ID":"47899","CENTER_NAME":"EARTH","RCS_SIZE":"LARGE","EPHEMERIS_TYPE":"0","LAUNCH_DATE":"2021-03-14","SEMIMAJOR_AXIS":"6925.334","MEAN_MOTION_DDOT":"0.0000000000000","OBJECT_ID":"2021-021AR","DECAY_DATE":null,"ECCENTRICITY":"0.00015710","OBJECT_TYPE":"PAYLOAD"},{"CLASSIFICATION_TYPE":"U","BSTAR":"0.00009522700000","OBJECT_NAME":"STARLINK-2360","EPOCH":"2021-10-30T11:01:48.038592","INCLINATION":"53.0557","PERIAPSIS":"546.140","MEAN_MOTION_DOT":"0.00001137","ELEMENT_SET_NO":"999","PERIOD":"95.592","GP_ID":"188516435","COUNTRY_CODE":"US","APOAPSIS":"548.282","MEAN_ANOMALY":"284.7037","REF_FRAME":"TEME","SITE":"AFETR","REV_AT_EPOCH":"3636","TLE_LINE2":"2 47900  53.0557 214.9270 0001547  75.4123 284.7037 15.06400868 36368","MEAN_MOTION":"15.06400868","EPHEMERIS_TYPE":"0","LAUNCH_DATE":"2021-03-14","SEMIMAJOR_AXIS":"6925.346","MEAN_MOTION_DDOT":"0.0000000000000","OBJECT_ID":"2021-021AS","DECAY_DATE":null,"OBJECT_TYPE":"PAYLOAD","ECCENTRICITY":"0.00015470","TLE_LINE1":"1 47900U 21021AS  21303.45958378  .00001137  00000-0  95227-4 0  9995","TIME_SYSTEM":"UTC","RA_OF_ASC_NODE":"214.9270","ARG_OF_PERICENTER":"75.4123","FILE":"3192905","MEAN_ELEMENT_THEORY":"SGP4","NORAD_CAT_ID":"47900","RCS_SIZE":"LARGE","CENTER_NAME":"EARTH"},{"OBJECT_ID":"2021-021AT","MEAN_MOTION_DDOT":"0.0000000000000","LAUNCH_DATE":"2021-03-14","SEMIMAJOR_AXIS":"6925.367","EPHEMERIS_TYPE":"0","ECCENTRICITY":"0.00015690","OBJECT_TYPE":"PAYLOAD","DECAY_DATE":null,"ARG_OF_PERICENTER":"74.9605","FILE":"3192905","RA_OF_ASC_NODE":"206.6062","TIME_SYSTEM":"UTC","TLE_LINE1":"1 47901U 21021AT  21303.08453998 -.00000989  00000-0 -47542-4 0  9996","CENTER_NAME":"EARTH","RCS_SIZE":"LARGE","MEAN_ELEMENT_THEORY":"SGP4","NORAD_CAT_ID":"47901","OBJECT_NAME":"STARLINK-2361","BSTAR":"-0.00004754200000","CLASSIFICATION_TYPE":"U","PERIOD":"95.593","ELEMENT_SET_NO":"999","MEAN_MOTION_DOT":"-0.00000989","PERIAPSIS":"546.145","INCLINATION":"53.0525","EPOCH":"2021-10-30T02:01:44.254272","APOAPSIS":"548.318","COUNTRY_CODE":"US","GP_ID":"188515185","MEAN_MOTION":"15.06394104","TLE_LINE2":"2 47901  53.0525 206.6062 0001569  74.9605 285.1557 15.06394104 36439","REV_AT_EPOCH":"3643","SITE":"AFETR","REF_FRAME":"TEME","MEAN_ANOMALY":"285.1557"},{"LAUNCH_DATE":"2021-03-14","SEMIMAJOR_AXIS":"6925.355","EPHEMERIS_TYPE":"0","OBJECT_ID":"2021-021AU","MEAN_MOTION_DDOT":"0.0000000000000","DECAY_DATE":null,"ECCENTRICITY":"0.00017670","OBJECT_TYPE":"PAYLOAD","FILE":"3192905","ARG_OF_PERICENTER":"69.3789","RA_OF_ASC_NODE":"224.8465","TIME_SYSTEM":"UTC","TLE_LINE1":"1 47902U 21021AU  21303.47435015  .00001083  00000-0  91593-4 0  9999","CENTER_NAME":"EARTH","RCS_SIZE":"LARGE","NORAD_CAT_ID":"47902","MEAN_ELEMENT_THEORY":"SGP4","CLASSIFICATION_TYPE":"U","OBJECT_NAME":"STARLINK-2362","BSTAR":"0.00009159300000","ELEMENT_SET_NO":"999","PERIOD":"95.592","PERIAPSIS":"545.996","MEAN_MOTION_DOT":"0.00001083","EPOCH":"2021-10-30T11:23:03.852960","INCLINATION":"53.0538","APOAPSIS":"548.444","COUNTRY_CODE":"US","GP_ID":"188515435","SITE":"AFETR","REF_FRAME":"TEME","MEAN_ANOMALY":"290.7389","MEAN_MOTION":"15.06397888","REV_AT_EPOCH":"3632","TLE_LINE2":"2 47902  53.0538 224.8465 0001767  69.3789 290.7389 15.06397888 36329"},{"ECCENTRICITY":"0.00016740","OBJECT_TYPE":"PAYLOAD","DECAY_DATE":null,"MEAN_MOTION_DDOT":"0.0000000000000","OBJECT_ID":"2021-021AV","EPHEMERIS_TYPE":"0","LAUNCH_DATE":"2021-03-14","SEMIMAJOR_AXIS":"6925.353","MEAN_ELEMENT_THEORY":"SGP4","NORAD_CAT_ID":"47903","CENTER_NAME":"EARTH","RCS_SIZE":"LARGE","TIME_SYSTEM":"UTC","RA_OF_ASC_NODE":"205.0510","TLE_LINE1":"1 47903U 21021AV  21303.43196112  .00001384  00000-0  11180-3 0  9995","FILE":"3192905","ARG_OF_PERICENTER":"64.7427","EPOCH":"2021-10-30T10:22:01.440768","INCLINATION":"53.0562","PERIOD":"95.592","ELEMENT_SET_NO":"999","PERIAPSIS":"546.059","MEAN_MOTION_DOT":"0.00001384","BSTAR":"0.00011180000000","OBJECT_NAME":"STARLINK-2363","CLASSIFICATION_TYPE":"U","TLE_LINE2":"2 47903  53.0562 205.0510 0001674  64.7427 295.3735 15.06398442 36833","REV_AT_EPOCH":"3683","MEAN_MOTION":"15.06398442","MEAN_ANOMALY":"295.3735","SITE":"AFETR","REF_FRAME":"TEME","COUNTRY_CODE":"US","GP_ID":"188515687","APOAPSIS":"548.378"}];
